NORAD_CAT_ID,OBJECT_NAME,OBJECT_TYPE,EPOCH,MEAN_MOTION,ECCENTRICITY,INCLINATION,RA_OF_ASC_NODE,ARG_OF_PERICENTER,MEAN_ANOMALY,BSTAR,MEAN_MOTION_DOT,MEAN_MOTION_DDOT,TLE_LINE0,TLE_LINE1,TLE_LINE2,SEMIMAJOR_AXIS,PERIOD,APOGEE,PERIGEE,DECAYED
53975.0,STARLINK-5137,PAYLOAD,2023-02-18 14:00:01,15.10492415,8.94e-05,53.2155,185.2873,84.0248,338.9604,-0.0029992,-0.00049897,0.0,0 STARLINK-5137,1 53975U 22125M   23049.58334491 -.00049897  00000-0 -29992-2 0  9998,2 53975  53.2155 185.2873 0000894  84.0248 338.9604 15.10492415  1302,6912.834,95.333,535.317,534.081,0.0
53975.0,STARLINK-5137,PAYLOAD,2023-02-19 06:00:00,15.10450282,8.55e-05,53.2162,182.2856,92.8945,357.2088,0.0041613,0.00069613,0.0,0 STARLINK-5137,1 53975U 22125M   23050.25001157  .00069613  00000-0  41613-2 0  9994,2 53975  53.2162 182.2856 0000855  92.8945 357.2088 15.10450282 21214,6912.963,95.336,535.419,534.237,0.0
53975.0,STARLINK-5137,PAYLOAD,2023-02-19 14:00:01,15.10542001,0.0001064,53.2164,180.7869,81.29,22.3688,-0.00668,-0.00110004,0.0,0 STARLINK-5137,1 53975U 22125M   23050.58334491 -.00110004  00000-0 -66800-2 0  9998,2 53975  53.2164 180.7869 0001064  81.2900  22.3688 15.10542001  1304,6912.683,95.33,535.283,533.812,0.0
53975.0,STARLINK-5137,PAYLOAD,2023-02-19 22:00:00,15.10457776,0.0001216,53.2166,179.2869,78.6491,38.6046,0.00033059,5.212e-05,0.0,0 STARLINK-5137,1 53975U 22125M   23050.91667824  .00005212  00000-0  33059-3 0  9997,2 53975  53.2166 179.2869 0001216  78.6491  38.6046 15.10457776 21318,6912.94,95.335,535.646,533.964,0.0
53975.0,STARLINK-5137,PAYLOAD,2023-02-20 14:00:01,15.10510107,0.0001273,53.2172,176.2868,86.5083,57.8295,-0.0051933,-0.000858,0.0,0 STARLINK-5137,1 53975U 22125M   23051.58334491 -.00085800  00000-0 -51933-2 0  9995,2 53975  53.2172 176.2868 0001273  86.5083  57.8295 15.10510107  1303,6912.78,95.332,535.525,533.765,0.0
53975.0,STARLINK-5137,PAYLOAD,2023-02-20 22:00:01,15.10460688,0.0001203,53.2172,174.7866,87.2659,70.705,0.0012177,0.00020028,0.0,0 STARLINK-5137,1 53975U 22125M   23051.91668981  .00020028  00000-0  12177-2 0  9992,2 53975  53.2172 174.7866 0001203  87.2659  70.7050 15.10460688 21464,6912.931,95.335,535.628,533.964,0.0
53975.0,STARLINK-5137,PAYLOAD,2023-02-21 08:25:14,15.10473476,9.88e-05,53.2171,172.8317,88.4497,271.6609,4.9276e-05,5.28e-06,0.0,0 STARLINK-5137,1 53975U 22125M   23052.35085682  .00000528  00000-0  49276-4 0  9997,2 53975  53.2171 172.8317 0000988  88.4497 271.6609 15.10473476 21534,6912.892,95.334,535.44,534.074,0.0
53975.0,STARLINK-5137,PAYLOAD,2023-02-21 14:46:20,15.10491781,9.29e-05,53.2172,171.6406,92.1867,267.9232,0.00018683,2.82e-05,0.0,0 STARLINK-5137,1 53975U 22125M   23052.61551311  .00002820  00000-0  18683-3 0  9997,2 53975  53.2172 171.6406 0000929  92.1867 267.9232 15.10491781 21505,6912.836,95.333,535.343,534.059,0.0
53975.0,STARLINK-5137,PAYLOAD,2023-02-21 17:56:53,15.10496778,0.0001023,53.217,171.0447,92.7965,267.3145,0.00019028,2.878e-05,0.0,0 STARLINK-5137,1 53975U 22125M   23052.74784507  .00002878  00000-0  19028-3 0  9993,2 53975  53.2170 171.0447 0001023  92.7965 267.3145 15.10496778 21590,6912.821,95.333,535.393,533.979,0.0
53975.0,STARLINK-5137,PAYLOAD,2023-02-22 00:18:02,15.10488269,0.0001151,53.2182,169.8543,94.9869,265.1256,2.2943e-05,9e-07,0.0,0 STARLINK-5137,1 53975U 22125M   23053.01252571  .00000090  00000-0  22943-4 0  9990,2 53975  53.2182 169.8543 0001151  94.9869 265.1256 15.10488269 21634,6912.847,95.333,535.508,533.916,0.0
53975.0,STARLINK-5137,PAYLOAD,2023-02-22 11:25:01,15.1047759,0.000126,53.2164,167.77,102.1344,257.979,6.2115e-05,7.42e-06,0.0,0 STARLINK-5137,1 53975U 22125M   23053.47571031  .00000742  00000-0  62115-4 0  9994,2 53975  53.2164 167.7700 0001260 102.1344 257.9790 15.10477590 21702,6912.879,95.334,535.615,533.873,0.0
53975.0,STARLINK-5137,PAYLOAD,2023-02-22 13:00:18,15.10480276,0.0001299,53.2171,167.4721,101.6011,258.5128,5.8276e-05,6.78e-06,0.0,0 STARLINK-5137,1 53975U 22125M   23053.54187629  .00000678  00000-0  58276-4 0  9999,2 53975  53.2171 167.4721 0001299 101.6011 258.5128 15.10480276 21647,6912.871,95.334,535.634,533.838,0.0
53975.0,STARLINK-5137,PAYLOAD,2023-02-23 11:14:15,15.10475669,0.0001326,53.2189,163.3047,102.9051,257.209,-8.8388e-05,-1.764e-05,0.0,0 STARLINK-5137,1 53975U 22125M   23054.46823820 -.00001764  00000-0 -88388-4 0  9997,2 53975  53.2189 163.3047 0001326 102.9051 257.2090 15.10475669 21780,6912.885,95.334,535.667,533.834,0.0
53975.0,STARLINK-5137,PAYLOAD,2023-02-23 14:24:49,15.10475486,0.0001425,53.2189,162.7105,104.7253,255.3898,-7.978e-05,-1.62e-05,0.0,0 STARLINK-5137,1 53975U 22125M   23054.60056754 -.00001620  00000-0 -79780-4 0  9994,2 53975  53.2189 162.7105 0001425 104.7253 255.3898 15.10475486 21874,6912.886,95.334,535.736,533.766,0.0
53975.0,STARLINK-5137,PAYLOAD,2023-02-24 12:38:46,15.10474052,0.0001399,53.2186,158.5398,106.1352,253.9794,6.6559e-05,8.16e-06,0.0,0 STARLINK-5137,1 53975U 22125M   23055.52692794  .00000816  00000-0  66559-4 0  9990,2 53975  53.2186 158.5398 0001399 106.1352 253.9794 15.10474052 21949,6912.89,95.334,535.722,533.788,0.0
53975.0,STARLINK-5137,PAYLOAD,2023-02-24 14:14:03,15.1047568,0.0001416,53.2186,158.2418,103.5736,256.5415,6.0085e-05,7.08e-06,0.0,0 STARLINK-5137,1 53975U 22125M   23055.59309584  .00000708  00000-0  60085-4 0  9997,2 53975  53.2186 158.2418 0001416 103.5736 256.5415 15.10475680 21954,6912.885,95.334,535.729,533.771,0.0
53975.0,STARLINK-5137,PAYLOAD,2023-02-24 23:45:44,15.10479319,0.0001162,53.2183,156.4533,78.56,281.5524,5.9168e-05,6.93e-06,0.0,0 STARLINK-5137,1 53975U 22125M   23055.99010194  .00000693  00000-0  59168-4 0  9990,2 53975  53.2183 156.4533 0001162  78.5600 281.5524 15.10479319 22085,6912.874,95.334,535.542,533.936,0.0
53975.0,STARLINK-5137,PAYLOAD,2023-02-25 07:42:10,15.10458529,0.0001249,53.2194,154.9669,96.0706,264.043,4.2771e-05,4.19e-06,0.0,0 STARLINK-5137,1 53975U 22125M   23056.32095966  .00000419  00000-0  42771-4 0  9996,2 53975  53.2194 154.9669 0001249  96.0706 264.0430 15.10458529 22136,6912.938,95.335,535.666,533.939,0.0
53975.0,STARLINK-5137,PAYLOAD,2023-02-25 12:28:01,15.10466695,0.0001432,53.2195,154.0729,89.7855,270.3302,3.3089e-05,2.58e-06,0.0,0 STARLINK-5137,1 53975U 22125M   23056.51946144  .00000258  00000-0  33089-4 0  9993,2 53975  53.2195 154.0729 0001432  89.7855 270.3302 15.10466695 22099,6912.913,95.335,535.768,533.788,0.0
53975.0,STARLINK-5137,PAYLOAD,2023-02-25 15:38:35,15.10470784,0.0001239,53.218,153.4759,87.4945,272.6189,5.0005e-05,5.4e-06,0.0,0 STARLINK-5137,1 53975U 22125M   23056.65179499  .00000540  00000-0  50005-4 0  9990,2 53975  53.2180 153.4759 0001239  87.4945 272.6189 15.10470784 22181,6912.9,95.335,535.622,533.909,0.0
53975.0,STARLINK-5137,PAYLOAD,2023-02-25 23:34:59,15.10478537,0.0001313,53.2198,151.9888,84.8136,275.3007,9.2758e-05,1.252e-05,0.0,0 STARLINK-5137,1 53975U 22125M   23056.98263164  .00001252  00000-0  92758-4 0  9991,2 53975  53.2198 151.9888 0001313  84.8136 275.3007 15.10478537 22231,6912.877,95.334,535.649,533.834,0.0
53975.0,STARLINK-5137,PAYLOAD,2023-02-26 10:41:57,15.10489468,0.0001126,53.2182,149.9043,86.4567,273.6554,0.00036738,5.831e-05,0.0,0 STARLINK-5137,1 53975U 22125M   23057.44580351  .00005831  00000-0  36738-3 0  9995,2 53975  53.2182 149.9043 0001126  86.4567 273.6554 15.10489468 22235,6912.843,95.333,535.487,533.93,0.0
53975.0,STARLINK-5137,PAYLOAD,2023-02-26 15:27:47,15.10507713,0.0001136,53.2157,149.0083,91.9711,268.1412,0.00071083,0.00011571,0.0,0 STARLINK-5137,1 53975U 22125M   23057.64430161  .00011571  00000-0  71083-3 0  9990,2 53975  53.2157 149.0083 0001136  91.9711 268.1412 15.10507713 22332,6912.788,95.332,535.438,533.867,0.0
53975.0,STARLINK-5137,PAYLOAD,2023-02-26 23:24:12,15.10482642,0.0001076,53.2169,147.521,99.6076,260.5038,0.00013978,2.036e-05,0.0,0 STARLINK-5137,1 53975U 22125M   23057.97514915  .00002036  00000-0  13978-3 0  9991,2 53975  53.2169 147.5210 0001076  99.6076 260.5038 15.10482642 22380,6912.864,95.334,535.473,533.985,0.0
53975.0,STARLINK-5137,PAYLOAD,2023-02-27 10:31:11,15.10487082,0.0001397,53.2179,145.4377,94.0965,266.0188,0.0002152,3.293e-05,0.0,0 STARLINK-5137,1 53975U 22125M   23058.43832599  .00003293  00000-0  21520-3 0  9992,2 53975  53.2179 145.4377 0001397  94.0965 266.0188 15.10487082 22384,6912.85,95.333,535.681,533.75,0.0
53975.0,STARLINK-5137,PAYLOAD,2023-02-27 15:17:01,15.10539612,0.0001458,53.2157,144.5417,104.8293,255.2862,0.0027016,0.00045047,0.0,0 STARLINK-5137,1 53975U 22125M   23058.63682247  .00045047  00000-0  27016-2 0  9995,2 53975  53.2157 144.5417 0001458 104.8293 255.2862 15.10539612 22484,6912.69,95.33,535.563,533.547,0.0
53975.0,STARLINK-5137,PAYLOAD,2023-02-27 23:13:27,15.10487041,0.0001989,53.2173,143.0558,70.3262,289.7945,0.0013144,0.00021662,0.0,0 STARLINK-5137,1 53975U 22125M   23058.96767441  .00021662  00000-0  13144-2 0  9995,2 53975  53.2173 143.0558 0001989  70.3262 289.7945 15.10487041 22532,6912.851,95.333,536.091,533.341,0.0
53975.0,STARLINK-5137,PAYLOAD,2023-02-28 11:55:42,15.10493349,0.0001356,53.2178,140.6713,88.1998,271.915,0.0011205,0.00018418,0.0,0 STARLINK-5137,1 53975U 22125M   23059.49701395  .00018418  00000-0  11205-2 0  9991,2 53975  53.2178 140.6713 0001356  88.1998 271.9150 15.10493349 22612,6912.831,95.333,535.634,533.759,0.0
53975.0,STARLINK-5137,PAYLOAD,2023-02-28 16:41:32,15.10508325,0.0001283,53.2171,139.7779,85.3227,274.7913,0.0017763,0.00029427,0.0,0 STARLINK-5137,1 53975U 22125M   23059.69551425  .00029427  00000-0  17763-2 0  9997,2 53975  53.2171 139.7779 0001283  85.3227 274.7913 15.10508325 22573,6912.786,95.332,535.538,533.764,0.0
53975.0,STARLINK-5137,PAYLOAD,2023-03-01 11:44:57,15.10444736,0.0001426,53.217,136.2054,56.0377,304.0751,0.0012979,0.00021361,0.0,0 STARLINK-5137,1 53975U 22125M   23060.48955964  .00021361  00000-0  12979-2 0  9995,2 53975  53.2170 136.2054 0001426  56.0377 304.0751 15.10444736 22763,6912.98,95.336,535.83,533.859,0.0
